[{"sat":{"ORDINAL":"1","COMMENT":"GENERATED VIA SPACETRACK.ORG API","ORIGINATOR":"JSPOC","NORAD_CAT_ID":"7530","OBJECT_NAME":"OSCAR 7","OBJECT_TYPE":"PAYLOAD","CLASSIFICATION_TYPE":"U","INTLDES":"74089B","EPOCH":"2018-10-12 11:53:15","EPOCH_MICROSECONDS":"912384","MEAN_MOTION":"12.53634793","ECCENTRICITY":"0.0012409","INCLINATION":"101.7033","RA_OF_ASC_NODE":"251.1197","ARG_OF_PERICENTER":"107.2908","MEAN_ANOMALY":"6.7641","EPHEMERIS_TYPE":"0","ELEMENT_SET_NO":"999","REV_AT_EPOCH":"929","BSTAR":"6.091e-06","MEAN_MOTION_DOT":"-4.4e-07","MEAN_MOTION_DDOT":"0","FILE":"2344048","TLE_LINE0":"0 OSCAR 7","TLE_LINE1":"1  7530U 74089B   18285.49532306 -.00000044  00000-0  60910-5 0  9999","TLE_LINE2":"2  7530 101.7033 251.1197 0012409 107.2908   6.7641 12.53634793  9298","OBJECT_ID":"1974-089B","OBJECT_NUMBER":"7530","SEMIMAJOR_AXIS":"7827.465","PERIOD":"114.865","APOGEE":"1459.043","PERIGEE":"1439.617"},"latlng":{"lat":40.08500616527909,"lng":-72.14119549137558}},{"sat":{"ORDINAL":"1","COMMENT":"GENERATED VIA SPACETRACK.ORG API","ORIGINATOR":"JSPOC","NORAD_CAT_ID":"7530","OBJECT_NAME":"OSCAR 7","OBJECT_TYPE":"PAYLOAD","CLASSIFICATION_TYPE":"U","INTLDES":"74089B","EPOCH":"2018-10-12 11:53:15","EPOCH_MICROSECONDS":"912384","MEAN_MOTION":"12.53634793","ECCENTRICITY":"0.0012409","INCLINATION":"101.7033","RA_OF_ASC_NODE":"251.1197","ARG_OF_PERICENTER":"107.2908","MEAN_ANOMALY":"6.7641","EPHEMERIS_TYPE":"0","ELEMENT_SET_NO":"999","REV_AT_EPOCH":"929","BSTAR":"6.091e-06","MEAN_MOTION_DOT":"-4.4e-07","MEAN_MOTION_DDOT":"0","FILE":"2344048","TLE_LINE0":"0 OSCAR 7","TLE_LINE1":"1  7530U 74089B   18285.49532306 -.00000044  00000-0  60910-5 0  9999","TLE_LINE2":"2  7530 101.7033 251.1197 0012409 107.2908   6.7641 12.53634793  9298","OBJECT_ID":"1974-089B","OBJECT_NUMBER":"7530","SEMIMAJOR_AXIS":"7827.465","PERIOD":"114.865","APOGEE":"1459.043","PERIGEE":"1439.617"},"latlng":{"lat":-31.99758948055275,"lng":108.75249916035253}},{"sat":{"ORDINAL":"1","COMMENT":"GENERATED VIA SPACETRACK.ORG API","ORIGINATOR":"JSPOC","NORAD_CAT_ID":"7530","OBJECT_NAME":"OSCAR 7","OBJECT_TYPE":"PAYLOAD","CLASSIFICATION_TYPE":"U","INTLDES":"74089B","EPOCH":"2018-10-12 11:53:15","EPOCH_MICROSECONDS":"912384","MEAN_MOTION":"12.53634793","ECCENTRICITY":"0.0012409","INCLINATION":"101.7033","RA_OF_ASC_NODE":"251.1197","ARG_OF_PERICENTER":"107.2908","MEAN_ANOMALY":"6.7641","EPHEMERIS_TYPE":"0","ELEMENT_SET_NO":"999","REV_AT_EPOCH":"929","BSTAR":"6.091e-06","MEAN_MOTION_DOT":"-4.4e-07","MEAN_MOTION_DDOT":"0","FILE":"2344048","TLE_LINE0":"0 OSCAR 7","TLE_LINE1":"1  7530U 74089B   18285.49532306 -.00000044  00000-0  60910-5 0  9999","TLE_LINE2":"2  7530 101.7033 251.1197 0012409 107.2908   6.7641 12.53634793  9298","OBJECT_ID":"1974-089B","OBJECT_NUMBER":"7530","SEMIMAJOR_AXIS":"7827.465","PERIOD":"114.865","APOGEE":"1459.043","PERIGEE":"1439.617"},"latlng":{"lat":-29.89819558325716,"lng":-171.5265320845546}},{"sat":{"ORDINAL":"1","COMMENT":"GENERATED VIA SPACETRACK.ORG API","ORIGINATOR":"JSPOC","NORAD_CAT_ID":"7530","OBJECT_NAME":"OSCAR 7","OBJECT_TYPE":"PAYLOAD","CLASSIFICATION_TYPE":"U","INTLDES":"74089B","EPOCH":"2018-10-12 11:53:15","EPOCH_MICROSECONDS":"912384","MEAN_MOTION":"12.53634793","ECCENTRICITY":"0.0012409","INCLINATION":"101.7033","RA_OF_ASC_NODE":"251.1197","ARG_OF_PERICENTER":"107.2908","MEAN_ANOMALY":"6.7641","EPHEMERIS_TYPE":"0","ELEMENT_SET_NO":"999","REV_AT_EPOCH":"929","BSTAR":"6.091e-06","MEAN_MOTION_DOT":"-4.4e-07","MEAN_MOTION_DDOT":"0","FILE":"2344048","TLE_LINE0":"0 OSCAR 7","TLE_LINE1":"1  7530U 74089B   18285.49532306 -.00000044  00000-0  60910-5 0  9999","TLE_LINE2":"2  7530 101.7033 251.1197 0012409 107.2908   6.7641 12.53634793  9298","OBJECT_ID":"1974-089B","OBJECT_NUMBER":"7530","SEMIMAJOR_AXIS":"7827.465","PERIOD":"114.865","APOGEE":"1459.043","PERIGEE":"1439.617"},"latlng":{"lat":15.939985004719604,"lng":14.172646113722351}},{"sat":{"ORDINAL":"1","COMMENT":"GENERATED VIA SPACETRACK.ORG API","ORIGINATOR":"JSPOC","NORAD_CAT_ID":"7530","OBJECT_NAME":"OSCAR 7","OBJECT_TYPE":"PAYLOAD","CLASSIFICATION_TYPE":"U","INTLDES":"74089B","EPOCH":"2018-10-12 11:53:15","EPOCH_MICROSECONDS":"912384","MEAN_MOTION":"12.53634793","ECCENTRICITY":"0.0012409","INCLINATION":"101.7033","RA_OF_ASC_NODE":"251.1197","ARG_OF_PERICENTER":"107.2908","MEAN_ANOMALY":"6.7641","EPHEMERIS_TYPE":"0","ELEMENT_SET_NO":"999","REV_AT_EPOCH":"929","BSTAR":"6.091e-06","MEAN_MOTION_DOT":"-4.4e-07","MEAN_MOTION_DDOT":"0","FILE":"2344048","TLE_LINE0":"0 OSCAR 7","TLE_LINE1":"1  7530U 74089B   18285.49532306 -.00000044  00000-0  60910-5 0  9999","TLE_LINE2":"2  7530 101.7033 251.1197 0012409 107.2908   6.7641 12.53634793  9298","OBJECT_ID":"1974-089B","OBJECT_NUMBER":"7530","SEMIMAJOR_AXIS":"7827.465","PERIOD":"114.865","APOGEE":"1459.043","PERIGEE":"1439.617"},"latlng":{"lat":26.86127387963557,"lng":1.3846210851439764}},{"sat":{"ORDINAL":"1","COMMENT":"GENERATED VIA SPACETRACK.ORG API","ORIGINATOR":"JSPOC","NORAD_CAT_ID":"7530","OBJECT_NAME":"OSCAR 7","OBJECT_TYPE":"PAYLOAD","CLASSIFICATION_TYPE":"U","INTLDES":"74089B","EPOCH":"2018-10-12 11:53:15","EPOCH_MICROSECONDS":"912384","MEAN_MOTION":"12.53634793","ECCENTRICITY":"0.0012409","INCLINATION":"101.7033","RA_OF_ASC_NODE":"251.1197","ARG_OF_PERICENTER":"107.2908","MEAN_ANOMALY":"6.7641","EPHEMERIS_TYPE":"0","ELEMENT_SET_NO":"999","REV_AT_EPOCH":"929","BSTAR":"6.091e-06","MEAN_MOTION_DOT":"-4.4e-07","MEAN_MOTION_DDOT":"0","FILE":"2344048","TLE_LINE0":"0 OSCAR 7","TLE_LINE1":"1  7530U 74089B   18285.49532306 -.00000044  00000-0  60910-5 0  9999","TLE_LINE2":"2  7530 101.7033 251.1197 0012409 107.2908   6.7641 12.53634793  9298","OBJECT_ID":"1974-089B","OBJECT_NUMBER":"7530","SEMIMAJOR_AXIS":"7827.465","PERIOD":"114.865","APOGEE":"1459.043","PERIGEE":"1439.617"},"latlng":{"lat":-81.79010881048373,"lng":-78.9214657231351}},{"sat":{"ORDINAL":"1","COMMENT":"GENERATED VIA SPACETRACK.ORG API","ORIGINATOR":"JSPOC","NORAD_CAT_ID":"7530","OBJECT_NAME":"OSCAR 7","OBJECT_TYPE":"PAYLOAD","CLASSIFICATION_TYPE":"U","INTLDES":"74089B","EPOCH":"2018-10-12 11:53:15","EPOCH_MICROSECONDS":"912384","MEAN_MOTION":"12.53634793","ECCENTRICITY":"0.0012409","INCLINATION":"101.7033","RA_OF_ASC_NODE":"251.1197","ARG_OF_PERICENTER":"107.2908","MEAN_ANOMALY":"6.7641","EPHEMERIS_TYPE":"0","ELEMENT_SET_NO":"999","REV_AT_EPOCH":"929","BSTAR":"6.091e-06","MEAN_MOTION_DOT":"-4.4e-07","MEAN_MOTION_DDOT":"0","FILE":"2344048","TLE_LINE0":"0 OSCAR 7","TLE_LINE1":"1  7530U 74089B   18285.49532306 -.00000044  00000-0  60910-5 0  9999","TLE_LINE2":"2  7530 101.7033 251.1197 0012409 107.2908   6.7641 12.53634793  9298","OBJECT_ID":"1974-089B","OBJECT_NUMBER":"7530","SEMIMAJOR_AXIS":"7827.465","PERIOD":"114.865","APOGEE":"1459.043","PERIGEE":"1439.617"},"latlng":{"lat":26.33351671303115,"lng":130.93749741654568}},{"sat":{"ORDINAL":"1","COMMENT":"GENERATED VIA SPACETRACK.ORG API","ORIGINATOR":"JSPOC","NORAD_CAT_ID":"7530","OBJECT_NAME":"OSCAR 7","OBJECT_TYPE":"PAYLOAD","CLASSIFICATION_TYPE":"U","INTLDES":"74089B","EPOCH":"2018-10-12 11:53:15","EPOCH_MICROSECONDS":"912384","MEAN_MOTION":"12.53634793","ECCENTRICITY":"0.0012409","INCLINATION":"101.7033","RA_OF_ASC_NODE":"251.1197","ARG_OF_PERICENTER":"107.2908","MEAN_ANOMALY":"6.7641","EPHEMERIS_TYPE":"0","ELEMENT_SET_NO":"999","REV_AT_EPOCH":"929","BSTAR":"6.091e-06","MEAN_MOTION_DOT":"-4.4e-07","MEAN_MOTION_DDOT":"0","FILE":"2344048","TLE_LINE0":"0 OSCAR 7","TLE_LINE1":"1  7530U 74089B   18285.49532306 -.00000044  00000-0  60910-5 0  9999","TLE_LINE2":"2  7530 101.7033 251.1197 0012409 107.2908   6.7641 12.53634793  9298","OBJECT_ID":"1974-089B","OBJECT_NUMBER":"7530","SEMIMAJOR_AXIS":"7827.465","PERIOD":"114.865","APOGEE":"1459.043","PERIGEE":"1439.617"},"latlng":{"lat":-54.06390292934435,"lng":-3.2622670289410394}},{"sat":{"ORDINAL":"1","COMMENT":"GENERATED VIA SPACETRACK.ORG API","ORIGINATOR":"JSPOC","NORAD_CAT_ID":"7530","OBJECT_NAME":"OSCAR 7","OBJECT_TYPE":"PAYLOAD","CLASSIFICATION_TYPE":"U","INTLDES":"74089B","EPOCH":"2018-10-12 11:53:15","EPOCH_MICROSECONDS":"912384","MEAN_MOTION":"12.53634793","ECCENTRICITY":"0.0012409","INCLINATION":"101.7033","RA_OF_ASC_NODE":"251.1197","ARG_OF_PERICENTER":"107.2908","MEAN_ANOMALY":"6.7641","EPHEMERIS_TYPE":"0","ELEMENT_SET_NO":"999","REV_AT_EPOCH":"929","BSTAR":"6.091e-06","MEAN_MOTION_DOT":"-4.4e-07","MEAN_MOTION_DDOT":"0","FILE":"2344048","TLE_LINE0":"0 OSCAR 7","TLE_LINE1":"1  7530U 74089B   18285.49532306 -.00000044  00000-0  60910-5 0  9999","TLE_LINE2":"2  7530 101.7033 251.1197 0012409 107.2908   6.7641 12.53634793  9298","OBJECT_ID":"1974-089B","OBJECT_NUMBER":"7530","SEMIMAJOR_AXIS":"7827.465","PERIOD":"114.865","APOGEE":"1459.043","PERIGEE":"1439.617"},"latlng":{"lat":49.49688611612493,"lng":-87.25033362530735}},{"sat":{"ORDINAL":"1","COMMENT":"GENERATED VIA SPACETRACK.ORG API","ORIGINATOR":"JSPOC","NORAD_CAT_ID":"7530","OBJECT_NAME":"OSCAR 7","OBJECT_TYPE":"PAYLOAD","CLASSIFICATION_TYPE":"U","INTLDES":"74089B","EPOCH":"2018-10-12 11:53:15","EPOCH_MICROSECONDS":"912384","MEAN_MOTION":"12.53634793","ECCENTRICITY":"0.0012409","INCLINATION":"101.7033","RA_OF_ASC_NODE":"251.1197","ARG_OF_PERICENTER":"107.2908","MEAN_ANOMALY":"6.7641","EPHEMERIS_TYPE":"0","ELEMENT_SET_NO":"999","REV_AT_EPOCH":"929","BSTAR":"6.091e-06","MEAN_MOTION_DOT":"-4.4e-07","MEAN_MOTION_DDOT":"0","FILE":"2344048","TLE_LINE0":"0 OSCAR 7","TLE_LINE1":"1  7530U 74089B   18285.49532306 -.00000044  00000-0  60910-5 0  9999","TLE_LINE2":"2  7530 101.7033 251.1197 0012409 107.2908   6.7641 12.53634793  9298","OBJECT_ID":"1974-089B","OBJECT_NUMBER":"7530","SEMIMAJOR_AXIS":"7827.465","PERIOD":"114.865","APOGEE":"1459.043","PERIGEE":"1439.617"},"latlng":{"lat":-45.62545713797578,"lng":84.01851004486855}}]